{"type": "FeatureCollection", "features": [ {"type": "Feature", "properties": {"norad_id": 40664, "name": "SKY MEXICO-1", "group": "intelsat", "lat": 0.025205069897710708, "lon": 72.55835061873195, "alt_km": 35794.819200806385, "timestamp": "2025-12-24T03:53:29.310291+00:00", "meta": {"OBJECT_NAME": "SKY MEXICO-1", "OBJECT_ID": "2015-026B", "EPOCH": "2025-12-23T17:28:36.325344", "MEAN_MOTION": 1.00270618, "ECCENTRICITY": 0.0002455, "INCLINATION": 0.009, "RA_OF_ASC_NODE": 26.3464, "ARG_OF_PERICENTER": 262.6384, "MEAN_ANOMALY": 346.9167, "EPHEMERIS_TYPE": 0, "CLASSIFICATION_TYPE": "U", "NORAD_CAT_ID": 40664, "ELEMENT_SET_NO": 999, "REV_AT_EPOCH": 3869, "BSTAR": 0, "MEAN_MOTION_DOT": -2.13e-06, "MEAN_MOTION_DDOT": 0}, "tle": {"line1": "1 40664U 15026B   25357.72819821 -.00000213  00000+0  00000+0 0  9999", "line2": "2 40664   0.0090  26.3464 0002455 262.6384 346.9167  1.00270618 38690"}}, "geometry": {"type": "Point", "coordinates": [72.55835061873195, 0.025205069897710708]}}, {"type": "Feature", "properties": {"norad_id": 40874, "name": "INTELSAT 34 (IS-34)", "group": "intelsat", "lat": 0.0229374707680484, "lon": 95.80638998033032, "alt_km": 35785.17855153662, "timestamp": "2025-12-24T03:53:29.310302+00:00", "meta": {"OBJECT_NAME": "INTELSAT 34 (IS-34)", "OBJECT_ID": "2015-039A", "EPOCH": "2025-12-23T12:52:10.360128", "MEAN_MOTION": 1.00270652, "ECCENTRICITY": 7.22e-05, "INCLINATION": 0.0148, "RA_OF_ASC_NODE": 311.8752, "ARG_OF_PERICENTER": 208.9597, "MEAN_ANOMALY": 69.0423, "EPHEMERIS_TYPE": 0, "CLASSIFICATION_TYPE": "U", "NORAD_CAT_ID": 40874, "ELEMENT_SET_NO": 999, "REV_AT_EPOCH": 3786, "BSTAR": 0, "MEAN_MOTION_DOT": -2.64e-06, "MEAN_MOTION_DDOT": 0}, "tle": {"line1": "1 40874U 15039A   25357.53623102 -.00000264  00000+0  00000+0 0  9996", "line2": "2 40874   0.0148 311.8752 0000722 208.9597  69.0423  1.00270652 37867"}}, "geometry": {"type": "Point", "coordinates": [95.80638998033032, 0.0229374707680484]}}, {"type": "Feature", "properties": {"norad_id": 41581, "name": "INTELSAT 31 (IS-31)", "group": "intelsat", "lat": 0.020043233097109675, "lon": 56.23374554454373, "alt_km": 35793.68518615602, "timestamp": "2025-12-24T03:53:29.310314+00:00", "meta": {"OBJECT_NAME": "INTELSAT 31 (IS-31)", "OBJECT_ID": "2016-035A", "EPOCH": "2025-12-23T13:22:23.770848", "MEAN_MOTION": 1.00270103, "ECCENTRICITY": 0.0001953, "INCLINATION": 0.029, "RA_OF_ASC_NODE": 261.8543, "ARG_OF_PERICENTER": 304.2314, "MEAN_ANOMALY": 351.8, "EPHEMERIS_TYPE": 0, "CLASSIFICATION_TYPE": "U", "NORAD_CAT_ID": 41581, "ELEMENT_SET_NO": 999, "REV_AT_EPOCH": 3492, "BSTAR": 0, "MEAN_MOTION_DOT": -1.3e-06, "MEAN_MOTION_DDOT": 0}, "tle": {"line1": "1 41581U 16035A   25357.55721957 -.00000130  00000+0  00000+0 0  9990", "line2": "2 41581   0.0290 261.8543 0001953 304.2314 351.8000  1.00270103 34925"}}, "geometry": {"type": "Point", "coordinates": [56.23374554454373, 0.020043233097109675]}}, {"type": "Feature", "properties": {"norad_id": 41747, "name": "INTELSAT 36 (IS-36)", "group": "intelsat", "lat": -0.01720087677215202, "lon": -140.21222294498125, "alt_km": 35787.561433231334, "timestamp": "2025-12-24T03:53:29.310326+00:00", "meta": {"OBJECT_NAME": "INTELSAT 36 (IS-36)", "OBJECT_ID": "2016-053A", "EPOCH": "2025-12-23T20:08:01.498272", "MEAN_MOTION": 1.00271079, "ECCENTRICITY": 0.0001112, "INCLINATION": 0.0103, "RA_OF_ASC_NODE": 7.4851, "ARG_OF_PERICENTER": 318.5182, "MEAN_ANOMALY": 137.1195, "EPHEMERIS_TYPE": 0, "CLASSIFICATION_TYPE": "U", "NORAD_CAT_ID": 41747, "ELEMENT_SET_NO": 999, "REV_AT_EPOCH": 3419, "BSTAR": 0, "MEAN_MOTION_DOT": -3e-08, "MEAN_MOTION_DDOT": 0}, "tle": {"line1": "1 41747U 16053A   25357.83890623 -.00000003  00000+0  00000+0 0  9991", "line2": "2 41747   0.0103   7.4851 0001112 318.5182 137.1195  1.00271079 34198"}}, "geometry": {"type": "Point", "coordinates": [-140.21222294498125, -0.01720087677215202]}}, {"type": "Feature", "properties": {"norad_id": 41945, "name": "INTELSAT 32E (IS-32E)", "group": "intelsat", "lat": 0.03187176046676187, "lon": 108.13351372172173, "alt_km": 35786.07529566992, "timestamp": "2025-12-24T03:53:29.310351+00:00", "meta": {"OBJECT_NAME": "INTELSAT 32E (IS-32E)", "OBJECT_ID": "2017-007B", "EPOCH": "2025-12-23T16:21:03.290112", "MEAN_MOTION": 1.0026875, "ECCENTRICITY": 2.53e-05, "INCLINATION": 0.0225, "RA_OF_ASC_NODE": 67.8207, "ARG_OF_PERICENTER": 7.8321, "MEAN_ANOMALY": 218.9086, "EPHEMERIS_TYPE": 0, "CLASSIFICATION_TYPE": "U", "NORAD_CAT_ID": 41945, "ELEMENT_SET_NO": 999, "REV_AT_EPOCH": 3246, "BSTAR": 0, "MEAN_MOTION_DOT": -2.48e-06, "MEAN_MOTION_DDOT": 0}, "tle": {"line1": "1 41945U 17007B   25357.68128808 -.00000248  00000+0  00000+0 0  9994", "line2": "2 41945   0.0225  67.8207 0000253   7.8321 218.9086  1.00268750 32463"}}, "geometry": {"type": "Point", "coordinates": [108.13351372172173, 0.03187176046676187]}}, {"type": "Feature", "properties": {"norad_id": 42818, "name": "INTELSAT 35E (IS-35E)", "group": "intelsat", "lat": 0.044107581030734096, "lon": 116.7860015445932, "alt_km": 35795.568467933575, "timestamp": "2025-12-24T03:53:29.310365+00:00", "meta": {"OBJECT_NAME": "INTELSAT 35E (IS-35E)", "OBJECT_ID": "2017-041A", "EPOCH": "2025-12-23T18:06:15.717312", "MEAN_MOTION": 1.00267135, "ECCENTRICITY": 0.0002011, "INCLINATION": 0.0217, "RA_OF_ASC_NODE": 25.0924, "ARG_OF_PERICENTER": 254.8492, "MEAN_ANOMALY": 49.6559, "EPHEMERIS_TYPE": 0, "CLASSIFICATION_TYPE": "U", "NORAD_CAT_ID": 42818, "ELEMENT_SET_NO": 999, "REV_AT_EPOCH": 3105, "BSTAR": 0, "MEAN_MOTION_DOT": 0, "MEAN_MOTION_DDOT": 0}, "tle": {"line1": "1 42818U 17041A   25357.75434858  .00000000  00000+0  00000+0 0  9990", "line2": "2 42818   0.0217  25.0924 0002011 254.8492  49.6559  1.00267135 31057"}}, "geometry": {"type": "Point", "coordinates": [116.7860015445932, 0.044107581030734096]}}, {"type": "Feature", "properties": {"norad_id": 42950, "name": "INTELSAT 37E (IS-37E)", "group": "intelsat", "lat": 0.03801151496419986, "lon": 133.27996071607228, "alt_km": 35794.63886248846, "timestamp": "2025-12-24T03:53:29.310377+00:00", "meta": {"OBJECT_NAME": "INTELSAT 37E (IS-37E)", "OBJECT_ID": "2017-059A", "EPOCH": "2025-12-23T18:11:00.261024", "MEAN_MOTION": 1.00270032, "ECCENTRICITY": 0.0003018, "INCLINATION": 0.0205, "RA_OF_ASC_NODE": 15.4009, "ARG_OF_PERICENTER": 246.8432, "MEAN_ANOMALY": 85.0521, "EPHEMERIS_TYPE": 0, "CLASSIFICATION_TYPE": "U", "NORAD_CAT_ID": 42950, "ELEMENT_SET_NO": 999, "REV_AT_EPOCH": 3030, "BSTAR": 0, "MEAN_MOTION_DOT": 0, "MEAN_MOTION_DDOT": 0}, "tle": {"line1": "1 42950U 17059A   25357.75764191  .00000000  00000+0  00000+0 0  9992", "line2": "2 42950   0.0205  15.4009 0003018 246.8432  85.0521  1.00270032 30301"}}, "geometry": {"type": "Point", "coordinates": [133.27996071607228, 0.03801151496419986]}}, {"type": "Feature", "properties": {"norad_id": 43632, "name": "AZERSPACE 2 (IS-38)", "group": "intelsat", "lat": -0.008913940513585175, "lon": -163.6017357000004, "alt_km": 35785.186584228744, "timestamp": "2025-12-24T03:53:29.310389+00:00", "meta": {"OBJECT_NAME": "AZERSPACE 2 (IS-38)", "OBJECT_ID": "2018-074A", "EPOCH": "2025-12-23T18:28:58.539936", "MEAN_MOTION": 1.00270494, "ECCENTRICITY": 0.0001258, "INCLINATION": 0.0176, "RA_OF_ASC_NODE": 359.5683, "ARG_OF_PERICENTER": 273.6639, "MEAN_ANOMALY": 141.6738, "EPHEMERIS_TYPE": 0, "CLASSIFICATION_TYPE": "U", "NORAD_CAT_ID": 43632, "ELEMENT_SET_NO": 999, "REV_AT_EPOCH": 2668, "BSTAR": 0, "MEAN_MOTION_DOT": 1.58e-06, "MEAN_MOTION_DDOT": 0}, "tle": {"line1": "1 43632U 18074A   25357.77012199  .00000158  00000+0  00000+0 0  9998", "line2": "2 43632   0.0176 359.5683 0001258 273.6639 141.6738  1.00270494 26684"}}, "geometry": {"type": "Point", "coordinates": [-163.6017357000004, -0.008913940513585175]}}, {"type": "Feature", "properties": {"norad_id": 43633, "name": "HORIZONS-3E", "group": "intelsat", "lat": 0.009806163189652408, "lon": -39.70943868500288, "alt_km": 35784.26236244157, "timestamp": "2025-12-24T03:53:29.310401+00:00", "meta": {"OBJECT_NAME": "HORIZONS-3E", "OBJECT_ID": "2018-074B", "EPOCH": "2025-12-23T03:39:48.312000", "MEAN_MOTION": 1.00269863, "ECCENTRICITY": 5.63e-05, "INCLINATION": 0.0111, "RA_OF_ASC_NODE": 213.5125, "ARG_OF_PERICENTER": 95.1186, "MEAN_ANOMALY": 7.2553, "EPHEMERIS_TYPE": 0, "CLASSIFICATION_TYPE": "U", "NORAD_CAT_ID": 43633, "ELEMENT_SET_NO": 999, "REV_AT_EPOCH": 2657, "BSTAR": 0, "MEAN_MOTION_DOT": 0, "MEAN_MOTION_DDOT": 0}, "tle": {"line1": "1 43633U 18074B   25357.15264250  .00000000  00000+0  00000+0 0  9994", "line2": "2 43633   0.0111 213.5125 0000563  95.1186   7.2553  1.00269863 26574"}}, "geometry": {"type": "Point", "coordinates": [-39.70943868500288, 0.009806163189652408]}}, {"type": "Feature", "properties": {"norad_id": 44333, "name": "AT&T T-16", "group": "intelsat", "lat": 0.004510363236290031, "lon": 50.428164392911114, "alt_km": 35786.527358761414, "timestamp": "2025-12-24T03:53:29.310412+00:00", "meta": {"OBJECT_NAME": "AT&T T-16", "OBJECT_ID": "2019-034A", "EPOCH": "2025-12-23T03:21:38.542752", "MEAN_MOTION": 1.00269221, "ECCENTRICITY": 8.459e-05, "INCLINATION": 0.0204, "RA_OF_ASC_NODE": 63.1564, "ARG_OF_PERICENTER": 72.8406, "MEAN_ANOMALY": 265.4876, "EPHEMERIS_TYPE": 0, "CLASSIFICATION_TYPE": "U", "NORAD_CAT_ID": 44333, "ELEMENT_SET_NO": 999, "REV_AT_EPOCH": 2386, "BSTAR": 0, "MEAN_MOTION_DOT": -9.4e-07, "MEAN_MOTION_DDOT": 0}, "tle": {"line1": "1 44333U 19034A   25357.14002943 -.00000094  00000+0  00000+0 0  9991", "line2": "2 44333   0.0204  63.1564 0000845  72.8406 265.4876  1.00269221 23864"}}, "geometry": {"type": "Point", "coordinates": [50.428164392911114, 0.004510363236290031]}}]}